{"type": "FeatureCollection", "features": [ {"type": "Feature", "properties": {"norad_id": 67069, "name": "XIWANG-5 02", "group": "last-30-days", "lat": 26.4316957742961, "lon": 91.83870877584461, "alt_km": 503.2200980064117, "timestamp": "2025-12-20T11:30:27.108912+00:00", "meta": {"OBJECT_NAME": "XIWANG-5 02", "OBJECT_ID": "2025-296A", "EPOCH": "2025-12-20T05:00:03.008160", "MEAN_MOTION": 15.16815712, "ECCENTRICITY": 0.0014465, "INCLINATION": 41.3526, "RA_OF_ASC_NODE": 58.9709, "ARG_OF_PERICENTER": 78.4582, "MEAN_ANOMALY": 281.7863, "EPHEMERIS_TYPE": 0, "CLASSIFICATION_TYPE": "U", "NORAD_CAT_ID": 67069, "ELEMENT_SET_NO": 999, "REV_AT_EPOCH": 109, "BSTAR": 0.00041582, "MEAN_MOTION_DOT": 8.157e-05, "MEAN_MOTION_DDOT": 0}, "tle": {"line1": "1 67069U 25296A   25354.20836815  .00008157  00000+0  41582-3 0  9997", "line2": "2 67069  41.3526  58.9709 0014465  78.4582 281.7863 15.16815712  1095"}}, "geometry": {"type": "Point", "coordinates": [91.83870877584461, 26.4316957742961]}}, {"type": "Feature", "properties": {"norad_id": 67070, "name": "DEAR-5", "group": "last-30-days", "lat": 28.746419706994935, "lon": 95.99584671942007, "alt_km": 501.4430424529319, "timestamp": "2025-12-20T11:30:27.108922+00:00", "meta": {"OBJECT_NAME": "DEAR-5", "OBJECT_ID": "2025-296B", "EPOCH": "2025-12-20T04:58:55.432128", "MEAN_MOTION": 15.16879281, "ECCENTRICITY": 0.0016078, "INCLINATION": 41.3552, "RA_OF_ASC_NODE": 58.967, "ARG_OF_PERICENTER": 79.8478, "MEAN_ANOMALY": 280.4156, "EPHEMERIS_TYPE": 0, "CLASSIFICATION_TYPE": "U", "NORAD_CAT_ID": 67070, "ELEMENT_SET_NO": 999, "REV_AT_EPOCH": 108, "BSTAR": 0.00022721, "MEAN_MOTION_DOT": 4.371e-05, "MEAN_MOTION_DDOT": 0}, "tle": {"line1": "1 67070U 25296B   25354.20758602  .00004371  00000+0  22721-3 0  9994", "line2": "2 67070  41.3552  58.9670 0016078  79.8478 280.4156 15.16879281  1085"}}, "geometry": {"type": "Point", "coordinates": [95.99584671942007, 28.746419706994935]}}, {"type": "Feature", "properties": {"norad_id": 67071, "name": "KZ-11 R/B", "group": "last-30-days", "lat": -35.31882742075082, "lon": -66.33272826695436, "alt_km": 764.9964108136719, "timestamp": "2025-12-20T11:30:27.108932+00:00", "meta": {"OBJECT_NAME": "KZ-11 R/B", "OBJECT_ID": "2025-296C", "EPOCH": "2025-12-20T04:03:41.489280", "MEAN_MOTION": 15.0552825, "ECCENTRICITY": 0.060293, "INCLINATION": 41.3244, "RA_OF_ASC_NODE": 61.6826, "ARG_OF_PERICENTER": 5.4045, "MEAN_ANOMALY": 355.2917, "EPHEMERIS_TYPE": 0, "CLASSIFICATION_TYPE": "U", "NORAD_CAT_ID": 67071, "ELEMENT_SET_NO": 999, "REV_AT_EPOCH": 105, "BSTAR": 0.00053063, "MEAN_MOTION_DOT": 0.06669049, "MEAN_MOTION_DDOT": 6.4696e-06}, "tle": {"line1": "1 67071U 25296C   25354.16923020  .06669049  64696-5  53063-3 0  9993", "line2": "2 67071  41.3244  61.6826 0602930   5.4045 355.2917 15.05528250  1059"}}, "geometry": {"type": "Point", "coordinates": [-66.33272826695436, -35.31882742075082]}}, {"type": "Feature", "properties": {"norad_id": 67072, "name": "ELECTRON R/B", "group": "last-30-days", "lat": -57.79910053381615, "lon": 154.5560565126222, "alt_km": 307.3982600530735, "timestamp": "2025-12-20T11:30:27.108943+00:00", "meta": {"OBJECT_NAME": "ELECTRON R/B", "OBJECT_ID": "2025-297A", "EPOCH": "2025-12-20T04:13:32.384064", "MEAN_MOTION": 15.93491226, "ECCENTRICITY": 0.0182042, "INCLINATION": 97.4681, "RA_OF_ASC_NODE": 142.1969, "ARG_OF_PERICENTER": 205.6427, "MEAN_ANOMALY": 153.5738, "EPHEMERIS_TYPE": 0, "CLASSIFICATION_TYPE": "U", "NORAD_CAT_ID": 67072, "ELEMENT_SET_NO": 999, "REV_AT_EPOCH": 96, "BSTAR": 0.0013579, "MEAN_MOTION_DOT": 0.02731287, "MEAN_MOTION_DDOT": 2.2069e-06}, "tle": {"line1": "1 67072U 25297A   25354.17606926  .02731287  22069-5  13579-2 0  9994", "line2": "2 67072  97.4681 142.1969 0182042 205.6427 153.5738 15.93491226   963"}}, "geometry": {"type": "Point", "coordinates": [154.5560565126222, -57.79910053381615]}}, {"type": "Feature", "properties": {"norad_id": 67073, "name": "RAISE-4", "group": "last-30-days", "lat": 66.96285945543156, "lon": 123.80906509885449, "alt_km": 543.9215447619436, "timestamp": "2025-12-20T11:30:27.108953+00:00", "meta": {"OBJECT_NAME": "RAISE-4", "OBJECT_ID": "2025-297B", "EPOCH": "2025-12-19T06:31:31.025568", "MEAN_MOTION": 15.07177511, "ECCENTRICITY": 0.00114177, "INCLINATION": 97.4853, "RA_OF_ASC_NODE": 140.6452, "ARG_OF_PERICENTER": 296.9674, "MEAN_ANOMALY": 63.0387, "EPHEMERIS_TYPE": 0, "CLASSIFICATION_TYPE": "U", "NORAD_CAT_ID": 67073, "ELEMENT_SET_NO": 999, "REV_AT_EPOCH": 77, "BSTAR": 0.00022353741, "MEAN_MOTION_DOT": 3.306e-05, "MEAN_MOTION_DDOT": 0}, "tle": {"line1": "1 67073U 25297B   25353.27188687  .00003306  00000+0  22354-3 0  9993", "line2": "2 67073  97.4853 140.6452 0011417 296.9674  63.0387 15.07177511   776"}}, "geometry": {"type": "Point", "coordinates": [123.80906509885449, 66.96285945543156]}}, {"type": "Feature", "properties": {"norad_id": 67074, "name": "ELECTRON KICK STAGE R/B", "group": "last-30-days", "lat": 73.40074812014348, "lon": 116.13843847790665, "alt_km": 521.4853240460616, "timestamp": "2025-12-20T11:30:27.108963+00:00", "meta": {"OBJECT_NAME": "ELECTRON KICK STAGE R/B", "OBJECT_ID": "2025-297C", "EPOCH": "2025-12-20T03:27:38.822112", "MEAN_MOTION": 15.56561448, "ECCENTRICITY": 0.0200305, "INCLINATION": 97.4821, "RA_OF_ASC_NODE": 141.9475, "ARG_OF_PERICENTER": 242.5995, "MEAN_ANOMALY": 115.4758, "EPHEMERIS_TYPE": 0, "CLASSIFICATION_TYPE": "U", "NORAD_CAT_ID": 67074, "ELEMENT_SET_NO": 999, "REV_AT_EPOCH": 93, "BSTAR": 0.0013416, "MEAN_MOTION_DOT": 0.00245761, "MEAN_MOTION_DDOT": 1.7931e-05}, "tle": {"line1": "1 67074U 25297C   25354.14419933  .00245761  17931-4  13416-2 0  9999", "line2": "2 67074  97.4821 141.9475 0200305 242.5995 115.4758 15.56561448   932"}}, "geometry": {"type": "Point", "coordinates": [116.13843847790665, 73.40074812014348]}}, {"type": "Feature", "properties": {"norad_id": 67131, "name": "ZIYUAN 3-04 (ZY 3-04)", "group": "last-30-days", "lat": 18.602603259355348, "lon": -108.91134015389368, "alt_km": 500.9285642481109, "timestamp": "2025-12-20T11:30:27.108975+00:00", "meta": {"OBJECT_NAME": "ZIYUAN 3-04 (ZY 3-04)", "OBJECT_ID": "2025-300A", "EPOCH": "2025-12-20T02:54:27.968256", "MEAN_MOTION": 15.21166252, "ECCENTRICITY": 0.0002631, "INCLINATION": 97.4921, "RA_OF_ASC_NODE": 68.1934, "ARG_OF_PERICENTER": 174.8508, "MEAN_ANOMALY": 185.2755, "EPHEMERIS_TYPE": 0, "CLASSIFICATION_TYPE": "U", "NORAD_CAT_ID": 67131, "ELEMENT_SET_NO": 999, "REV_AT_EPOCH": 61, "BSTAR": 5.9528e-05, "MEAN_MOTION_DOT": 1.256e-05, "MEAN_MOTION_DDOT": 0}, "tle": {"line1": "1 67131U 25300A   25354.12115704  .00001256  00000+0  59528-4 0  9994", "line2": "2 67131  97.4921  68.1934 0002631 174.8508 185.2755 15.21166252   619"}}, "geometry": {"type": "Point", "coordinates": [-108.91134015389368, 18.602603259355348]}}, {"type": "Feature", "properties": {"norad_id": 67132, "name": "CZ-4B R/B", "group": "last-30-days", "lat": 69.28145429423358, "lon": 48.351083523969585, "alt_km": 323.8446491321365, "timestamp": "2025-12-20T11:30:27.108985+00:00", "meta": {"OBJECT_NAME": "CZ-4B R/B", "OBJECT_ID": "2025-300B", "EPOCH": "2025-12-18T16:13:04.609056", "MEAN_MOTION": 15.63831828, "ECCENTRICITY": 0.01741973, "INCLINATION": 97.5563, "RA_OF_ASC_NODE": 66.966, "ARG_OF_PERICENTER": 9.3582, "MEAN_ANOMALY": 351.0851, "EPHEMERIS_TYPE": 0, "CLASSIFICATION_TYPE": "U", "NORAD_CAT_ID": 67132, "ELEMENT_SET_NO": 999, "REV_AT_EPOCH": 40, "BSTAR": 0.00019566238, "MEAN_MOTION_DOT": 0.00040543, "MEAN_MOTION_DDOT": 2.652968e-06}, "tle": {"line1": "1 67132U 25300B   25352.67574779  .00040543  26530-5  19566-3 0  9995", "line2": "2 67132  97.5563  66.9660 0174197   9.3582 351.0851 15.63831828   407"}}, "geometry": {"type": "Point", "coordinates": [48.351083523969585, 69.28145429423358]}}, {"type": "Feature", "properties": {"norad_id": 67160, "name": "GALILEO A", "group": "last-30-days", "lat": 10.11208508024777, "lon": 114.55165786739431, "alt_km": 22960.270463958466, "timestamp": "2025-12-20T11:30:27.108998+00:00", "meta": {"OBJECT_NAME": "GALILEO A", "OBJECT_ID": "2025-302A", "EPOCH": "2025-12-18T03:30:19.486368", "MEAN_MOTION": 1.72906186, "ECCENTRICITY": 0.00084238, "INCLINATION": 54.2406, "RA_OF_ASC_NODE": 107.2544, "ARG_OF_PERICENTER": 237.6458, "MEAN_ANOMALY": 122.2317, "EPHEMERIS_TYPE": 0, "CLASSIFICATION_TYPE": "U", "NORAD_CAT_ID": 67160, "ELEMENT_SET_NO": 999, "REV_AT_EPOCH": 2, "BSTAR": 0, "MEAN_MOTION_DOT": -7e-08, "MEAN_MOTION_DDOT": 0}, "tle": {"line1": "1 67160U 25302A   25352.14605887 -.00000007  00000+0  00000+0 0  9994", "line2": "2 67160  54.2406 107.2544 0008423 237.6458 122.2317  1.72906186    28"}}, "geometry": {"type": "Point", "coordinates": [114.55165786739431, 10.11208508024777]}}, {"type": "Feature", "properties": {"norad_id": 67161, "name": "GALILEO B", "group": "last-30-days", "lat": 10.70169259159972, "lon": 114.96943120280721, "alt_km": 22941.666064957488, "timestamp": "2025-12-20T11:30:27.109009+00:00", "meta": {"OBJECT_NAME": "GALILEO B", "OBJECT_ID": "2025-302B", "EPOCH": "2025-12-19T07:14:53.290752", "MEAN_MOTION": 1.72972192, "ECCENTRICITY": 0.00045866, "INCLINATION": 54.2272, "RA_OF_ASC_NODE": 107.1916, "ARG_OF_PERICENTER": 255.0301, "MEAN_ANOMALY": 104.8802, "EPHEMERIS_TYPE": 0, "CLASSIFICATION_TYPE": "U", "NORAD_CAT_ID": 67161, "ELEMENT_SET_NO": 999, "REV_AT_EPOCH": 5, "BSTAR": 0, "MEAN_MOTION_DOT": -5e-08, "MEAN_MOTION_DDOT": 0}, "tle": {"line1": "1 67161U 25302B   25353.30200568 -.00000005  00000+0  00000+0 0  9999", "line2": "2 67161  54.2272 107.1916 0004586 255.0301 104.8802  1.72972192    57"}}, "geometry": {"type": "Point", "coordinates": [114.96943120280721, 10.70169259159972]}}]}